{"type": "FeatureCollection", "features": [ {"type": "Feature", "properties": {"norad_id": 41469, "name": "IRNSS-1G", "group": "gnss", "lat": -0.06569021890357825, "lon": -77.2800652639885, "alt_km": 35809.82995257482, "timestamp": "2025-12-10T04:57:29.861033+00:00", "meta": {"OBJECT_NAME": "IRNSS-1G", "OBJECT_ID": "2016-027A", "EPOCH": "2025-12-09T16:52:02.711424", "MEAN_MOTION": 1.00250828, "ECCENTRICITY": 0.0004632, "INCLINATION": 4.7256, "RA_OF_ASC_NODE": 102.1782, "ARG_OF_PERICENTER": 335.5749, "MEAN_ANOMALY": 23.1656, "EPHEMERIS_TYPE": 0, "CLASSIFICATION_TYPE": "U", "NORAD_CAT_ID": 41469, "ELEMENT_SET_NO": 999, "REV_AT_EPOCH": 3527, "BSTAR": 0, "MEAN_MOTION_DOT": -3.35e-06, "MEAN_MOTION_DDOT": 0}, "tle": {"line1": "1 41469U 16027A   25343.70280916 -.00000335  00000+0  00000+0 0  9990", "line2": "2 41469   4.7256 102.1782 0004632 335.5749  23.1656  1.00250828 35278"}}, "geometry": {"type": "Point", "coordinates": [-77.2800652639885, -0.06569021890357825]}}, {"type": "Feature", "properties": {"norad_id": 41549, "name": "GSAT0211 (GALILEO 14)", "group": "gnss", "lat": 1.524356519774844, "lon": 45.840774882147464, "alt_km": 23233.774321140183, "timestamp": "2025-12-10T04:57:29.861045+00:00", "meta": {"OBJECT_NAME": "GSAT0211 (GALILEO 14)", "OBJECT_ID": "2016-030A", "EPOCH": "2025-12-07T13:40:58.264320", "MEAN_MOTION": 1.70472997, "ECCENTRICITY": 0.00040128, "INCLINATION": 55.154, "RA_OF_ASC_NODE": 226.9659, "ARG_OF_PERICENTER": 14.4678, "MEAN_ANOMALY": 345.6377, "EPHEMERIS_TYPE": 0, "CLASSIFICATION_TYPE": "U", "NORAD_CAT_ID": 41549, "ELEMENT_SET_NO": 999, "REV_AT_EPOCH": 5940, "BSTAR": 0, "MEAN_MOTION_DOT": 2.3e-07, "MEAN_MOTION_DDOT": 0}, "tle": {"line1": "1 41549U 16030A   25341.57011880  .00000023  00000+0  00000+0 0  9991", "line2": "2 41549  55.1540 226.9659 0004012  14.4678 345.6377  1.70472997 59400"}}, "geometry": {"type": "Point", "coordinates": [45.840774882147464, 1.524356519774844]}}, {"type": "Feature", "properties": {"norad_id": 41550, "name": "GSAT0210 (GALILEO 13)", "group": "gnss", "lat": 16.38294533656136, "lon": -121.29089408585492, "alt_km": 23223.21597524123, "timestamp": "2025-12-10T04:57:29.861059+00:00", "meta": {"OBJECT_NAME": "GSAT0210 (GALILEO 13)", "OBJECT_ID": "2016-030B", "EPOCH": "2025-12-09T00:00:58.854816", "MEAN_MOTION": 1.70473614, "ECCENTRICITY": 0.0001366, "INCLINATION": 55.1527, "RA_OF_ASC_NODE": 226.9246, "ARG_OF_PERICENTER": 244.5421, "MEAN_ANOMALY": 115.531, "EPHEMERIS_TYPE": 0, "CLASSIFICATION_TYPE": "U", "NORAD_CAT_ID": 41550, "ELEMENT_SET_NO": 999, "REV_AT_EPOCH": 5942, "BSTAR": 0, "MEAN_MOTION_DOT": 1.3e-07, "MEAN_MOTION_DDOT": 0}, "tle": {"line1": "1 41550U 16030B   25343.00068119  .00000013  00000+0  00000+0 0  9999", "line2": "2 41550  55.1527 226.9246 0001366 244.5421 115.5310  1.70473614 59420"}}, "geometry": {"type": "Point", "coordinates": [-121.29089408585492, 16.38294533656136]}}, {"type": "Feature", "properties": {"norad_id": 41586, "name": "BEIDOU-2 G7 (C03)", "group": "gnss", "lat": -0.5102007661060297, "lon": -96.00577117433895, "alt_km": 35804.90958071093, "timestamp": "2025-12-10T04:57:29.861071+00:00", "meta": {"OBJECT_NAME": "BEIDOU-2 G7 (C03)", "OBJECT_ID": "2016-037A", "EPOCH": "2025-12-09T19:14:08.361024", "MEAN_MOTION": 1.00268395, "ECCENTRICITY": 0.0004343, "INCLINATION": 1.7498, "RA_OF_ASC_NODE": 67.7133, "ARG_OF_PERICENTER": 1.0737, "MEAN_ANOMALY": 48.9945, "EPHEMERIS_TYPE": 0, "CLASSIFICATION_TYPE": "U", "NORAD_CAT_ID": 41586, "ELEMENT_SET_NO": 999, "REV_AT_EPOCH": 499, "BSTAR": 0, "MEAN_MOTION_DOT": -3.51e-06, "MEAN_MOTION_DDOT": 0}, "tle": {"line1": "1 41586U 16037A   25343.80148566 -.00000351  00000+0  00000+0 0  9994", "line2": "2 41586   1.7498  67.7133 0004343   1.0737  48.9945  1.00268395  4999"}}, "geometry": {"type": "Point", "coordinates": [-96.00577117433895, -0.5102007661060297]}}, {"type": "Feature", "properties": {"norad_id": 41589, "name": "EUTELSAT 117 WEST B (WAAS/PRN 131)", "group": "gnss", "lat": -0.014077801990411632, "lon": 36.56117385264815, "alt_km": 35785.41824657172, "timestamp": "2025-12-10T04:57:29.861083+00:00", "meta": {"OBJECT_NAME": "EUTELSAT 117 WEST B (WAAS/PRN 131)", "OBJECT_ID": "2016-038B", "EPOCH": "2025-12-09T14:43:38.546112", "MEAN_MOTION": 1.00271212, "ECCENTRICITY": 3.69e-05, "INCLINATION": 0.0013, "RA_OF_ASC_NODE": 169.4503, "ARG_OF_PERICENTER": 286.2539, "MEAN_ANOMALY": 86.8165, "EPHEMERIS_TYPE": 0, "CLASSIFICATION_TYPE": "U", "NORAD_CAT_ID": 41589, "ELEMENT_SET_NO": 999, "REV_AT_EPOCH": 3476, "BSTAR": 0, "MEAN_MOTION_DOT": -9e-08, "MEAN_MOTION_DDOT": 0}, "tle": {"line1": "1 41589U 16038B   25343.61364058 -.00000009  00000+0  00000+0 0  9993", "line2": "2 41589   0.0013 169.4503 0000369 286.2539  86.8165  1.00271212 34764"}}, "geometry": {"type": "Point", "coordinates": [36.56117385264815, -0.014077801990411632]}}, {"type": "Feature", "properties": {"norad_id": 41859, "name": "GSAT0207 (GALILEO 15)", "group": "gnss", "lat": -23.762879137650977, "lon": -56.00085536718617, "alt_km": 23228.0403656575, "timestamp": "2025-12-10T04:57:29.861096+00:00", "meta": {"OBJECT_NAME": "GSAT0207 (GALILEO 15)", "OBJECT_ID": "2016-069A", "EPOCH": "2025-12-06T22:22:57.829728", "MEAN_MOTION": 1.70474256, "ECCENTRICITY": 0.00021753, "INCLINATION": 55.3787, "RA_OF_ASC_NODE": 106.4111, "ARG_OF_PERICENTER": 324.2379, "MEAN_ANOMALY": 35.7022, "EPHEMERIS_TYPE": 0, "CLASSIFICATION_TYPE": "U", "NORAD_CAT_ID": 41859, "ELEMENT_SET_NO": 999, "REV_AT_EPOCH": 5612, "BSTAR": 0, "MEAN_MOTION_DOT": 7e-08, "MEAN_MOTION_DDOT": 0}, "tle": {"line1": "1 41859U 16069A   25340.93261377  .00000007  00000+0  00000+0 0  9996", "line2": "2 41859  55.3787 106.4111 0002175 324.2379  35.7022  1.70474256 56122"}}, "geometry": {"type": "Point", "coordinates": [-56.00085536718617, -23.762879137650977]}}, {"type": "Feature", "properties": {"norad_id": 41860, "name": "GSAT0212 (GALILEO 16)", "group": "gnss", "lat": -45.97234020634273, "lon": 60.743261868610254, "alt_km": 23227.474462430742, "timestamp": "2025-12-10T04:57:29.861109+00:00", "meta": {"OBJECT_NAME": "GSAT0212 (GALILEO 16)", "OBJECT_ID": "2016-069B", "EPOCH": "2025-12-09T03:10:58.927872", "MEAN_MOTION": 1.70474546, "ECCENTRICITY": 0.00021877, "INCLINATION": 55.3778, "RA_OF_ASC_NODE": 106.3455, "ARG_OF_PERICENTER": 30.0277, "MEAN_ANOMALY": 329.9496, "EPHEMERIS_TYPE": 0, "CLASSIFICATION_TYPE": "U", "NORAD_CAT_ID": 41860, "ELEMENT_SET_NO": 999, "REV_AT_EPOCH": 5641, "BSTAR": 0, "MEAN_MOTION_DOT": 1e-07, "MEAN_MOTION_DDOT": 0}, "tle": {"line1": "1 41860U 16069B   25343.13262648  .00000010  00000+0  00000+0 0  9999", "line2": "2 41860  55.3778 106.3455 0002187  30.0277 329.9496  1.70474546 56413"}}, "geometry": {"type": "Point", "coordinates": [60.743261868610254, -45.97234020634273]}}, {"type": "Feature", "properties": {"norad_id": 41861, "name": "GSAT0213 (GALILEO 17)", "group": "gnss", "lat": 52.12023719911528, "lon": 168.83022746580315, "alt_km": 23221.820237943422, "timestamp": "2025-12-10T04:57:29.861120+00:00", "meta": {"OBJECT_NAME": "GSAT0213 (GALILEO 17)", "OBJECT_ID": "2016-069C", "EPOCH": "2025-12-08T21:55:35.814144", "MEAN_MOTION": 1.70474823, "ECCENTRICITY": 0.00022753, "INCLINATION": 55.38, "RA_OF_ASC_NODE": 106.3592, "ARG_OF_PERICENTER": 283.5203, "MEAN_ANOMALY": 76.4183, "EPHEMERIS_TYPE": 0, "CLASSIFICATION_TYPE": "U", "NORAD_CAT_ID": 41861, "ELEMENT_SET_NO": 999, "REV_AT_EPOCH": 5627, "BSTAR": 0, "MEAN_MOTION_DOT": 1e-07, "MEAN_MOTION_DDOT": 0}, "tle": {"line1": "1 41861U 16069C   25342.91360896  .00000010  00000+0  00000+0 0  9999", "line2": "2 41861  55.3800 106.3592 0002275 283.5203  76.4183  1.70474823 56273"}}, "geometry": {"type": "Point", "coordinates": [168.83022746580315, 52.12023719911528]}}, {"type": "Feature", "properties": {"norad_id": 41862, "name": "GSAT0214 (GALILEO 18)", "group": "gnss", "lat": -13.169944196723273, "lon": 97.01249819730177, "alt_km": 23221.864691255294, "timestamp": "2025-12-10T04:57:29.861133+00:00", "meta": {"OBJECT_NAME": "GSAT0214 (GALILEO 18)", "OBJECT_ID": "2016-069D", "EPOCH": "2025-12-07T21:16:28.160256", "MEAN_MOTION": 1.70474622, "ECCENTRICITY": 0.00012492, "INCLINATION": 55.3777, "RA_OF_ASC_NODE": 106.3805, "ARG_OF_PERICENTER": 290.0949, "MEAN_ANOMALY": 69.8506, "EPHEMERIS_TYPE": 0, "CLASSIFICATION_TYPE": "U", "NORAD_CAT_ID": 41862, "ELEMENT_SET_NO": 999, "REV_AT_EPOCH": 5638, "BSTAR": 0, "MEAN_MOTION_DOT": 8e-08, "MEAN_MOTION_DDOT": 0}, "tle": {"line1": "1 41862U 16069D   25341.88643704  .00000008  00000+0  00000+0 0  9994", "line2": "2 41862  55.3777 106.3805 0001249 290.0949  69.8506  1.70474622 56388"}}, "geometry": {"type": "Point", "coordinates": [97.01249819730177, -13.169944196723273]}}, {"type": "Feature", "properties": {"norad_id": 42709, "name": "SES-15 (WAAS/PRN 133)", "group": "gnss", "lat": 0.025666177753512306, "lon": 24.384378929481418, "alt_km": 35787.625338215345, "timestamp": "2025-12-10T04:57:29.861146+00:00", "meta": {"OBJECT_NAME": "SES-15 (WAAS/PRN 133)", "OBJECT_ID": "2017-026A", "EPOCH": "2025-12-09T14:35:18.297888", "MEAN_MOTION": 1.00266139, "ECCENTRICITY": 4.65e-05, "INCLINATION": 0.0199, "RA_OF_ASC_NODE": 344.6898, "ARG_OF_PERICENTER": 309.5909, "MEAN_ANOMALY": 233.9751, "EPHEMERIS_TYPE": 0, "CLASSIFICATION_TYPE": "U", "NORAD_CAT_ID": 42709, "ELEMENT_SET_NO": 999, "REV_AT_EPOCH": 553, "BSTAR": 0, "MEAN_MOTION_DOT": 6.3e-07, "MEAN_MOTION_DDOT": 0}, "tle": {"line1": "1 42709U 17026A   25343.60785067  .00000063  00000+0  00000+0 0  9991", "line2": "2 42709   0.0199 344.6898 0000465 309.5909 233.9751  1.00266139  5536"}}, "geometry": {"type": "Point", "coordinates": [24.384378929481418, 0.025666177753512306]}}]}